[{"OBJECT_NAME":"FORMOSAT 7-5","OBJECT_ID":"2019-036V","EPOCH":"2026-03-09T18:30:55.543680","MEAN_MOTION":14.96027232,"ECCENTRICITY":8.716e-5,"INCLINATION":23.9972,"RA_OF_ASC_NODE":218.3817,"ARG_OF_PERICENTER":89.5193,"MEAN_ANOMALY":270.5408,"EPHEMERIS_TYPE":0,"CLASSIFICATION_TYPE":"U","NORAD_CAT_ID":44358,"ELEMENT_SET_NO":999,"REV_AT_EPOCH":36744,"BSTAR":0.00030916132,"MEAN_MOTION_DOT":3.857e-5,"MEAN_MOTION_DDOT":0},{"OBJECT_NAME":"STARLINK-5617","OBJECT_ID":"2023-028N","EPOCH":"2026-03-09T21:46:53.334336","MEAN_MOTION":14.98332824,"ECCENTRICITY":0.00025577,"INCLINATION":69.9992,"RA_OF_ASC_NODE":243.8711,"ARG_OF_PERICENTER":268.1426,"MEAN_ANOMALY":91.9441,"EPHEMERIS_TYPE":0,"CLASSIFICATION_TYPE":"U","NORAD_CAT_ID":55753,"ELEMENT_SET_NO":999,"REV_AT_EPOCH":16607,"BSTAR":2.9104575e-5,"MEAN_MOTION_DOT":2.54e-6,"MEAN_MOTION_DDOT":0}]
