FORMOSAT 7-5            
1 44358U 19036V   26068.77147620  .00003857  00000+0  30916-3 0  9993
2 44358  23.9972 218.3817 0000871  89.5193 270.5408 14.96027232367445
STARLINK-5617           
1 55753U 23028N   26068.90756174  .00000254  00000+0  29105-4 0  9992
2 55753  69.9992 243.8711 0002558 268.1426  91.9441 14.98332824166078
